IRIDIUM 126             
1 42809U 17039G   25184.16651609  .00000228  00000+0  74478-4 0  9992
2 42809  86.3993 139.5514 0002519  84.0691 276.0792 14.34218659419938
IRIDIUM 124             
1 42810U 17039H   25183.76362291  .00000241  00000+0  65615-4 0  9993
2 42810  86.4476  76.4561 0002038  80.5740 279.5691 14.43276666424710
IRIDIUM 128             
1 42811U 17039J   25183.94794813 -.00000014  00000+0 -12118-4 0  9993
2 42811  86.4000 171.1147 0001902  81.2266 278.9145 14.34217111419921
IRIDIUM 121             
1 42812U 17039K   25183.83670079  .00000072  00000+0  18629-4 0  9994
2 42812  86.3993 139.7143 0002183  85.9612 274.1833 14.34217983419756
IRIDIUM 133             
1 42955U 17061A   25183.70058762  .00000007  00000+0 -45974-5 0  9995
2 42955  86.4002 171.3268 0002209  85.9208 274.2240 14.34217464404689
IRIDIUM 100             
1 42956U 17061B   25183.97331873  .00000048  00000+0  10101-4 0  9999
2 42956  86.3995 171.1398 0002343  83.1389 277.0074 14.34217846404726
IRIDIUM 122             
1 42957U 17061C   25184.22067991 -.00000004  00000+0 -83594-5 0  9997
2 42957  86.4001 171.0360 0002242  85.1893 274.9559 14.34217395404761
IRIDIUM 129             
1 42958U 17061D   25183.68790240 -.00000053  00000+0 -25922-4 0  9991
2 42958  86.4002 171.3215 0002468  95.1175 265.0302 14.34216924404707
